NORAD_CAT_ID,OBJECT_NAME,OBJECT_TYPE,EPOCH,MEAN_MOTION,ECCENTRICITY,INCLINATION,RA_OF_ASC_NODE,ARG_OF_PERICENTER,MEAN_ANOMALY,BSTAR,MEAN_MOTION_DOT,MEAN_MOTION_DDOT,TLE_LINE0,TLE_LINE1,TLE_LINE2,SEMIMAJOR_AXIS,PERIOD,APOGEE,PERIGEE,DECAYED
53702.0,STARLINK-4724,PAYLOAD,2023-10-12 03:20:48,15.08849397,0.0001483,53.2159,217.4779,90.3677,269.7485,0.00064937,0.00010064,0.0,0 STARLINK-4724,1 53702U 22107C   23285.13944964  .00010064  00000-0  64937-3 0  9992,2 53702  53.2159 217.4779 0001483  90.3677 269.7485 15.08849397 62316,6917.852,95.437,540.743,538.691,0.0
53702.0,STARLINK-4724,PAYLOAD,2023-10-13 01:36:12,15.08851689,0.0001572,53.2165,213.3111,92.6849,267.4323,0.00064254,9.956e-05,0.0,0 STARLINK-4724,1 53702U 22107C   23286.06681086  .00009956  00000-0  64254-3 0  9998,2 53702  53.2165 213.3111 0001572  92.6849 267.4323 15.08851689 61674,6917.845,95.437,540.797,538.622,0.0
53702.0,STARLINK-4724,PAYLOAD,2023-10-13 12:43:54,15.08850507,0.000162,53.216,211.2312,89.6186,270.4992,0.00048693,7.472e-05,0.0,0 STARLINK-4724,1 53702U 22107C   23286.53048945  .00007472  00000-0  48693-3 0  9991,2 53702  53.2160 211.2312 0001620  89.6186 270.4992 15.08850507 62522,6917.848,95.437,540.834,538.593,0.0
53702.0,STARLINK-4724,PAYLOAD,2023-10-13 22:16:12,15.088551,0.0001691,53.2166,209.4457,95.1628,264.9557,0.00043673,6.672e-05,0.0,0 STARLINK-4724,1 53702U 22107C   23286.92792613  .00006672  00000-0  43673-3 0  9996,2 53702  53.2166 209.4457 0001691  95.1628 264.9557 15.08855100 62583,6917.834,95.437,540.869,538.529,0.0
53702.0,STARLINK-4724,PAYLOAD,2023-10-14 01:26:58,15.08865542,0.0001461,53.2159,208.8515,95.9589,264.157,0.00073348,0.00011413,0.0,0 STARLINK-4724,1 53702U 22107C   23287.06040213  .00011413  00000-0  73348-3 0  9995,2 53702  53.2159 208.8515 0001461  95.9589 264.1570 15.08865542 62603,6917.802,95.436,540.678,538.657,0.0
53702.0,STARLINK-4724,PAYLOAD,2023-10-14 18:56:13,15.0883931,0.0001531,53.216,205.5795,90.7175,269.3992,-1.0813e-05,-4.6e-06,0.0,0 STARLINK-4724,1 53702U 22107C   23287.78904989 -.00000460  00000-0 -10813-4 0  9994,2 53702  53.2160 205.5795 0001531  90.7175 269.3992 15.08839310 61935,6917.882,95.438,540.807,538.688,0.0
53702.0,STARLINK-4724,PAYLOAD,2023-10-14 22:07:00,15.08835958,0.0001457,53.2179,204.9827,98.1512,261.9646,-0.00013215,-2.39e-05,0.0,0 STARLINK-4724,1 53702U 22107C   23287.92153087 -.00002390  00000-0 -13215-3 0  9997,2 53702  53.2179 204.9827 0001457  98.1512 261.9646 15.08835958 62735,6917.893,95.438,540.766,538.75,0.0
53702.0,STARLINK-4724,PAYLOAD,2023-10-15 04:28:33,15.08834511,0.0001363,53.216,203.7952,95.7027,264.412,1.3625e-05,-7.1e-07,0.0,0 STARLINK-4724,1 53702U 22107C   23288.18649407 -.00000071  00000-0  13625-4 0  9991,2 53702  53.2160 203.7952 0001363  95.7027 264.4120 15.08834511 62774,6917.897,95.438,540.705,538.819,0.0
53702.0,STARLINK-4724,PAYLOAD,2023-10-15 21:57:47,15.08838363,0.0001302,53.2167,200.524,85.8473,274.2667,0.00013662,1.887e-05,0.0,0 STARLINK-4724,1 53702U 22107C   23288.91513489  .00001887  00000-0  13662-3 0  9997,2 53702  53.2167 200.5240 0001302  85.8473 274.2667 15.08838363 62880,6917.885,95.438,540.651,538.85,0.0
53702.0,STARLINK-4724,PAYLOAD,2023-10-16 04:19:19,15.08853467,0.000129,53.2162,199.3357,87.5238,272.5902,0.00039403,5.991e-05,0.0,0 STARLINK-4724,1 53702U 22107C   23289.18008791  .00005991  00000-0  39403-3 0  9993,2 53702  53.2162 199.3357 0001290  87.5238 272.5902 15.08853467 62147,6917.839,95.437,540.597,538.812,0.0
53702.0,STARLINK-4724,PAYLOAD,2023-10-16 10:40:52,15.08848034,0.0001363,53.2166,198.1443,73.9278,286.1864,0.000316,4.746e-05,0.0,0 STARLINK-4724,1 53702U 22107C   23289.44505093  .00004746  00000-0  31600-3 0  9997,2 53702  53.2166 198.1443 0001363  73.9278 286.1864 15.08848034 62184,6917.856,95.437,540.664,538.778,0.0
53702.0,STARLINK-4724,PAYLOAD,2023-10-17 10:31:40,15.08840356,0.0002739,53.2162,193.6869,78.3586,281.7713,0.00010483,1.38e-05,0.0,0 STARLINK-4724,1 53702U 22107C   23290.43865968  .00001380  00000-0  10483-3 0  9995,2 53702  53.2162 193.6869 0002739  78.3586 281.7713 15.08840356 62331,6917.879,95.438,541.639,537.849,0.0
53702.0,STARLINK-4724,PAYLOAD,2023-10-18 00:50:07,15.0884315,0.0001537,53.2162,191.0097,77.4148,282.7016,-3.7687e-05,-8.88e-06,0.0,0 STARLINK-4724,1 53702U 22107C   23291.03481388 -.00000888  00000-0 -37687-4 0  9992,2 53702  53.2162 191.0097 0001537  77.4148 282.7016 15.08843150 63204,6917.871,95.437,540.799,538.672,0.0
53702.0,STARLINK-4724,PAYLOAD,2023-10-18 10:22:26,15.08847279,0.0001653,53.216,189.225,77.5004,282.6173,6.0018e-05,6.67e-06,0.0,0 STARLINK-4724,1 53702U 22107C   23291.43225258  .00000667  00000-0  60018-4 0  9995,2 53702  53.2160 189.2250 0001653  77.5004 282.6173 15.08847279 63268,6917.858,95.437,540.867,538.58,0.0
53702.0,STARLINK-4724,PAYLOAD,2023-10-19 02:16:17,15.08852769,0.0001592,53.217,186.2498,77.5896,282.5274,0.00034278,5.173e-05,0.0,0 STARLINK-4724,1 53702U 22107C   23292.09464993  .00005173  00000-0  34278-3 0  9994,2 53702  53.2170 186.2498 0001592  77.5896 282.5274 15.08852769 62586,6917.841,95.437,540.808,538.605,0.0
53702.0,STARLINK-4724,PAYLOAD,2023-10-19 05:27:03,15.08855905,0.0001281,53.2171,185.6552,70.8587,289.2544,0.00041396,6.309e-05,0.0,0 STARLINK-4724,1 53702U 22107C   23292.22712587  .00006309  00000-0  41396-3 0  9995,2 53702  53.2171 185.6552 0001281  70.8587 289.2544 15.08855905 63387,6917.832,95.437,540.583,538.811,0.0
53702.0,STARLINK-4724,PAYLOAD,2023-10-19 22:56:18,15.08850331,0.0001437,53.2157,182.3863,87.3942,272.7215,0.00013123,1.802e-05,0.0,0 STARLINK-4724,1 53702U 22107C   23292.95576657  .00001802  00000-0  13123-3 0  9991,2 53702  53.2157 182.3863 0001437  87.3942 272.7215 15.08850331 63493,6917.849,95.437,540.708,538.72,0.0
53702.0,STARLINK-4724,PAYLOAD,2023-10-20 02:07:03,15.08860207,0.0001284,53.2166,181.7884,108.6316,251.4816,0.00022561,3.306e-05,0.0,0 STARLINK-4724,1 53702U 22107C   23293.08824016  .00003306  00000-0  22561-3 0  9998,2 53702  53.2166 181.7884 0001284 108.6316 251.4816 15.08860207 63518,6917.819,95.436,540.572,538.795,0.0
53702.0,STARLINK-4724,PAYLOAD,2023-10-20 16:25:33,15.08830559,0.000143,53.2161,179.1145,86.9273,273.1883,-8.9361e-05,-1.709e-05,0.0,0 STARLINK-4724,1 53702U 22107C   23293.68441697 -.00001709  00000-0 -89361-4 0  9993,2 53702  53.2161 179.1145 0001430  86.9273 273.1883 15.08830559 62822,6917.909,95.438,540.764,538.785,0.0
53702.0,STARLINK-4724,PAYLOAD,2023-10-20 21:11:43,15.08831978,0.000146,53.2157,178.2224,87.867,272.2489,-5.8968e-05,-1.226e-05,0.0,0 STARLINK-4724,1 53702U 22107C   23293.88313730 -.00001226  00000-0 -58968-4 0  9994,2 53702  53.2157 178.2224 0001460  87.8670 272.2489 15.08831978 63637,6917.905,95.438,540.78,538.76,0.0
53702.0,STARLINK-4724,PAYLOAD,2023-10-21 09:54:47,15.08839479,0.0001392,53.2155,175.8425,96.0298,264.0853,-5.4365e-05,-1.153e-05,0.0,0 STARLINK-4724,1 53702U 22107C   23294.41305436 -.00001153  00000-0 -54365-4 0  9994,2 53702  53.2155 175.8425 0001392  96.0298 264.0853 15.08839479 62933,6917.882,95.438,540.71,538.784,0.0
53702.0,STARLINK-4724,PAYLOAD,2023-10-21 22:37:52,15.08853162,0.0001447,53.2155,173.4645,92.1678,267.9479,0.00032919,4.957e-05,0.0,0 STARLINK-4724,1 53702U 22107C   23294.94297103  .00004957  00000-0  32919-3 0  9996,2 53702  53.2155 173.4645 0001447  92.1678 267.9479 15.08853162 63797,6917.84,95.437,540.706,538.704,0.0
53702.0,STARLINK-4724,PAYLOAD,2023-10-22 01:48:38,15.08857524,0.000148,53.2155,172.8695,92.7029,267.4133,0.00044441,6.795e-05,0.0,0 STARLINK-4724,1 53702U 22107C   23295.07544959  .00006795  00000-0  44441-3 0  9990,2 53702  53.2155 172.8695 0001480  92.7029 267.4133 15.08857524 63033,6917.827,95.436,540.716,538.668,0.0
53702.0,STARLINK-4724,PAYLOAD,2023-10-22 19:17:54,15.08831854,0.0001485,53.2158,169.5987,96.9254,263.1907,1.3791e-05,-6.9e-07,0.0,0 STARLINK-4724,1 53702U 22107C   23295.80410277 -.00000069  00000-0  13791-4 0  9990,2 53702  53.2158 169.5987 0001485  96.9254 263.1907 15.08831854 63146,6917.905,95.438,540.798,538.743,0.0
53702.0,STARLINK-4724,PAYLOAD,2023-10-22 22:28:40,15.08836263,0.000149,53.2156,169.0041,96.7194,263.3967,0.00013193,1.812e-05,0.0,0 STARLINK-4724,1 53702U 22107C   23295.93658238  .00001812  00000-0  13193-3 0  9996,2 53702  53.2156 169.0041 0001490  96.7194 263.3967 15.08836263 63942,6917.892,95.438,540.788,538.726,0.0
53702.0,STARLINK-4724,PAYLOAD,2023-10-23 19:08:41,15.08845389,0.0001435,53.2157,165.1384,99.9751,260.1404,0.00059345,9.171e-05,0.0,0 STARLINK-4724,1 53702U 22107C   23296.79770363  .00009171  00000-0  59345-3 0  9990,2 53702  53.2157 165.1384 0001435  99.9751 260.1404 15.08845389 63291,6917.864,95.437,540.722,538.736,0.0
53702.0,STARLINK-4724,PAYLOAD,2023-10-23 22:19:27,15.08854421,0.0001501,53.2158,164.5455,102.1695,257.9466,0.00084063,0.00013121,0.0,0 STARLINK-4724,1 53702U 22107C   23296.93018176  .00013121  00000-0  84063-3 0  9998,2 53702  53.2158 164.5455 0001501 102.1695 257.9466 15.08854421 64090,6917.836,95.437,540.74,538.663,0.0
53702.0,STARLINK-4724,PAYLOAD,2023-10-24 15:48:42,15.08850319,0.0001533,53.2158,161.2746,100.3172,259.7993,0.0003502,5.291e-05,0.0,0 STARLINK-4724,1 53702U 22107C   23297.65882029  .00005291  00000-0  35020-3 0  9992,2 53702  53.2158 161.2746 0001533 100.3172 259.7993 15.08850319 64202,6917.849,95.437,540.774,538.653,0.0
53702.0,STARLINK-4724,PAYLOAD,2023-10-24 23:45:37,15.08847267,0.0001435,53.2155,159.787,98.9436,261.1719,0.00022272,3.259e-05,0.0,0 STARLINK-4724,1 53702U 22107C   23297.99002036  .00003259  00000-0  22272-3 0  9998,2 53702  53.2155 159.7870 0001435  98.9436 261.1719 15.08847267 63474,6917.858,95.437,540.716,538.73,0.0
53702.0,STARLINK-4724,PAYLOAD,2023-10-25 23:36:25,15.08839896,0.0001597,53.2156,155.3274,102.5154,257.6017,0.00034664,5.233e-05,0.0,0 STARLINK-4724,1 53702U 22107C   23298.98362344  .00005233  00000-0  34664-3 0  9991,2 53702  53.2156 155.3274 0001597 102.5154 257.6017 15.08839896 63620,6917.881,95.438,540.85,538.641,0.0
